; Sample: Helical descent Z=250→100, R=150 mm
G21 ; mm
G90 ; absolute
G0 Z200 F3000 ; safe height
G0 X150.000 Y0.000 Z250.000
G2 X-150.000 Y0.000 Z237.500 I-150.000 J0.000 F600
G2 X150.000 Y0.000 Z225.000 I150.000 J0.000 F600
G2 X-150.000 Y0.000 Z212.500 I-150.000 J0.000 F600
G2 X150.000 Y0.000 Z200.000 I150.000 J0.000 F600
G2 X-150.000 Y0.000 Z187.500 I-150.000 J0.000 F600
G2 X150.000 Y0.000 Z175.000 I150.000 J0.000 F600
G2 X-150.000 Y0.000 Z162.500 I-150.000 J0.000 F600
G2 X150.000 Y0.000 Z150.000 I150.000 J0.000 F600
G2 X-150.000 Y0.000 Z137.500 I-150.000 J0.000 F600
G2 X150.000 Y0.000 Z125.000 I150.000 J0.000 F600
G2 X-150.000 Y0.000 Z112.500 I-150.000 J0.000 F600
G2 X150.000 Y0.000 Z100.000 I150.000 J0.000 F600
G0 Z200 F3000 ; return to safe height
; end of program